IRIDIUM 63              
1 25286U 98021B   26003.00842289  .00000778  00000+0  25730-3 0  9998
2 25286  86.3982 358.2872 0002155  82.8508 277.2934 14.36757162452535
IRIDIUM 69              
1 25319U 98026A   26003.09921320  .00000802  00000+0  24217-3 0  9990
2 25319  86.3968  10.9058 0004578  86.8530 273.3193 14.41239907451850
IRIDIUM 71              
1 25320U 98026B   26003.08453905  .00000609  00000+0  18202-3 0  9992
2 25320  86.3971   5.5831 0003742 118.3414 241.8164 14.41334461452387
IRIDIUM 73              
1 25344U 98032C   26003.14236778  .00001294  00000+0  31529-3 0  9997
2 25344  86.4424 321.8932 0002793  75.4913 284.6603 14.52026872459572
IRIDIUM 82              
1 25467U 98051A   26003.05123728  .00068523  00000+0  11927-2 0  9991
2 25467  86.3588  10.3606 0055842 248.3882 111.1422 15.48740981454696
